{"type": "FeatureCollection", "features": [ {"type": "Feature", "properties": {"norad_id": 31753, "name": "FENGYUN 1C DEB", "group": "fengyun-1c-debris", "lat": 28.23398682693382, "lon": 5.28363596358699, "alt_km": 942.4889156361878, "timestamp": "2025-12-02T13:52:17.545976+00:00", "meta": {"OBJECT_NAME": "FENGYUN 1C DEB", "OBJECT_ID": "1999-025CFC", "EPOCH": "2025-11-30T07:51:12.178656", "MEAN_MOTION": 14.18607414, "ECCENTRICITY": 0.01585567, "INCLINATION": 98.6339, "RA_OF_ASC_NODE": 7.7715, "ARG_OF_PERICENTER": 209.5417, "MEAN_ANOMALY": 211.2113, "EPHEMERIS_TYPE": 0, "CLASSIFICATION_TYPE": "U", "NORAD_CAT_ID": 31753, "ELEMENT_SET_NO": 999, "REV_AT_EPOCH": 95843, "BSTAR": 0.00033498029, "MEAN_MOTION_DOT": 7.43e-06, "MEAN_MOTION_DDOT": 0}, "tle": {"line1": "1 31753U 99025CFC 25334.32722429  .00000743  00000+0  33498-3 0  9995", "line2": "2 31753  98.6339   7.7715 0158556 209.5417 211.2113 14.18607414958430"}}, "geometry": {"type": "Point", "coordinates": [5.28363596358699, 28.23398682693382]}}, {"type": "Feature", "properties": {"norad_id": 31754, "name": "FENGYUN 1C DEB", "group": "fengyun-1c-debris", "lat": -19.41837672721768, "lon": -55.510037326743024, "alt_km": 757.3840001490007, "timestamp": "2025-12-02T13:52:17.545986+00:00", "meta": {"OBJECT_NAME": "FENGYUN 1C DEB", "OBJECT_ID": "1999-025CFD", "EPOCH": "2025-12-02T03:58:18.660864", "MEAN_MOTION": 14.42137718, "ECCENTRICITY": 0.00492209, "INCLINATION": 99.0387, "RA_OF_ASC_NODE": 300.8366, "ARG_OF_PERICENTER": 249.9575, "MEAN_ANOMALY": 109.631, "EPHEMERIS_TYPE": 0, "CLASSIFICATION_TYPE": "U", "NORAD_CAT_ID": 31754, "ELEMENT_SET_NO": 999, "REV_AT_EPOCH": 96837, "BSTAR": 0.0013252392, "MEAN_MOTION_DOT": 4.376e-05, "MEAN_MOTION_DDOT": 0}, "tle": {"line1": "1 31754U 99025CFD 25336.16549376  .00004376  00000+0  13252-2 0  9999", "line2": "2 31754  99.0387 300.8366 0049220 249.9575 109.6310 14.42137718968373"}}, "geometry": {"type": "Point", "coordinates": [-55.510037326743024, -19.41837672721768]}}, {"type": "Feature", "properties": {"norad_id": 31757, "name": "FENGYUN 1C DEB", "group": "fengyun-1c-debris", "lat": 16.859695949490735, "lon": -178.38365201204988, "alt_km": 764.0582438696601, "timestamp": "2025-12-02T13:52:17.545996+00:00", "meta": {"OBJECT_NAME": "FENGYUN 1C DEB", "OBJECT_ID": "1999-025CFG", "EPOCH": "2025-11-25T07:08:44.431872", "MEAN_MOTION": 14.07896533, "ECCENTRICITY": 0.0217941, "INCLINATION": 98.7698, "RA_OF_ASC_NODE": 351.8577, "ARG_OF_PERICENTER": 133.0933, "MEAN_ANOMALY": 228.8704, "EPHEMERIS_TYPE": 0, "CLASSIFICATION_TYPE": "U", "NORAD_CAT_ID": 31757, "ELEMENT_SET_NO": 999, "REV_AT_EPOCH": 63636, "BSTAR": 0.00027065602, "MEAN_MOTION_DOT": 5.3e-06, "MEAN_MOTION_DDOT": 0}, "tle": {"line1": "1 31757U 99025CFG 25329.29773648  .00000530  00000+0  27066-3 0  9996", "line2": "2 31757  98.7698 351.8577 0217941 133.0933 228.8704 14.07896533636365"}}, "geometry": {"type": "Point", "coordinates": [-178.38365201204988, 16.859695949490735]}}, {"type": "Feature", "properties": {"norad_id": 31758, "name": "FENGYUN 1C DEB", "group": "fengyun-1c-debris", "lat": -63.75896190269549, "lon": 149.4945006283128, "alt_km": 881.784812257205, "timestamp": "2025-12-02T13:52:17.546006+00:00", "meta": {"OBJECT_NAME": "FENGYUN 1C DEB", "OBJECT_ID": "1999-025CFH", "EPOCH": "2025-12-01T11:46:52.006944", "MEAN_MOTION": 14.41625426, "ECCENTRICITY": 0.03190662, "INCLINATION": 98.062, "RA_OF_ASC_NODE": 345.1761, "ARG_OF_PERICENTER": 124.3809, "MEAN_ANOMALY": 238.7997, "EPHEMERIS_TYPE": 0, "CLASSIFICATION_TYPE": "U", "NORAD_CAT_ID": 31758, "ELEMENT_SET_NO": 999, "REV_AT_EPOCH": 94038, "BSTAR": 0.0019154087, "MEAN_MOTION_DOT": 0.00011484, "MEAN_MOTION_DDOT": 0}, "tle": {"line1": "1 31758U 99025CFH 25335.49087971  .00011484  00000+0  19154-2 0  9991", "line2": "2 31758  98.0620 345.1761 0319066 124.3809 238.7997 14.41625426940384"}}, "geometry": {"type": "Point", "coordinates": [149.4945006283128, -63.75896190269549]}}, {"type": "Feature", "properties": {"norad_id": 31760, "name": "FENGYUN 1C DEB", "group": "fengyun-1c-debris", "lat": -52.033434020679536, "lon": 85.66962010119508, "alt_km": 792.0072624510876, "timestamp": "2025-12-02T13:52:17.546016+00:00", "meta": {"OBJECT_NAME": "FENGYUN 1C DEB", "OBJECT_ID": "1999-025CFK", "EPOCH": "2025-12-02T00:41:11.800320", "MEAN_MOTION": 14.30106953, "ECCENTRICITY": 0.00524277, "INCLINATION": 99.2548, "RA_OF_ASC_NODE": 73.0252, "ARG_OF_PERICENTER": 227.9363, "MEAN_ANOMALY": 131.7351, "EPHEMERIS_TYPE": 0, "CLASSIFICATION_TYPE": "U", "NORAD_CAT_ID": 31760, "ELEMENT_SET_NO": 999, "REV_AT_EPOCH": 95979, "BSTAR": 0.00089347844, "MEAN_MOTION_DOT": 2.295e-05, "MEAN_MOTION_DDOT": 0}, "tle": {"line1": "1 31760U 99025CFK 25336.02860880  .00002295  00000+0  89348-3 0  9995", "line2": "2 31760  99.2548  73.0252 0052427 227.9363 131.7351 14.30106953959799"}}, "geometry": {"type": "Point", "coordinates": [85.66962010119508, -52.033434020679536]}}, {"type": "Feature", "properties": {"norad_id": 31761, "name": "FENGYUN 1C DEB", "group": "fengyun-1c-debris", "lat": 60.920844423764706, "lon": -174.930529928448, "alt_km": 1088.4419918342892, "timestamp": "2025-12-02T13:52:17.546026+00:00", "meta": {"OBJECT_NAME": "FENGYUN 1C DEB", "OBJECT_ID": "1999-025CFL", "EPOCH": "2025-12-01T08:28:48.328032", "MEAN_MOTION": 14.0313475, "ECCENTRICITY": 0.04738625, "INCLINATION": 98.6336, "RA_OF_ASC_NODE": 199.7572, "ARG_OF_PERICENTER": 295.5773, "MEAN_ANOMALY": 59.7139, "EPHEMERIS_TYPE": 0, "CLASSIFICATION_TYPE": "U", "NORAD_CAT_ID": 31761, "ELEMENT_SET_NO": 999, "REV_AT_EPOCH": 57951, "BSTAR": 0.0026597481, "MEAN_MOTION_DOT": 0.00011316, "MEAN_MOTION_DDOT": 0}, "tle": {"line1": "1 31761U 99025CFL 25335.35333713  .00011316  00000+0  26597-2 0  9991", "line2": "2 31761  98.6336 199.7572 0473862 295.5773  59.7139 14.03134750579512"}}, "geometry": {"type": "Point", "coordinates": [-174.930529928448, 60.920844423764706]}}, {"type": "Feature", "properties": {"norad_id": 31763, "name": "FENGYUN 1C DEB", "group": "fengyun-1c-debris", "lat": -48.735322024722684, "lon": -103.45132434384577, "alt_km": 1346.4628176837305, "timestamp": "2025-12-02T13:52:17.546037+00:00", "meta": {"OBJECT_NAME": "FENGYUN 1C DEB", "OBJECT_ID": "1999-025CFN", "EPOCH": "2025-12-02T05:49:28.632000", "MEAN_MOTION": 13.502872, "ECCENTRICITY": 0.05474391, "INCLINATION": 98.5207, "RA_OF_ASC_NODE": 86.0972, "ARG_OF_PERICENTER": 96.7771, "MEAN_ANOMALY": 298.9522, "EPHEMERIS_TYPE": 0, "CLASSIFICATION_TYPE": "U", "NORAD_CAT_ID": 31763, "ELEMENT_SET_NO": 999, "REV_AT_EPOCH": 90864, "BSTAR": 0.00099580258, "MEAN_MOTION_DOT": 1.6e-05, "MEAN_MOTION_DDOT": 0}, "tle": {"line1": "1 31763U 99025CFN 25336.24269250  .00001600  00000+0  99580-3 0  9994", "line2": "2 31763  98.5207  86.0972 0547439  96.7771 298.9522 13.50287200908646"}}, "geometry": {"type": "Point", "coordinates": [-103.45132434384577, -48.735322024722684]}}, {"type": "Feature", "properties": {"norad_id": 31766, "name": "FENGYUN 1C DEB", "group": "fengyun-1c-debris", "lat": 2.804333079501474, "lon": -25.750837620745447, "alt_km": 838.818241661982, "timestamp": "2025-12-02T13:52:17.546046+00:00", "meta": {"OBJECT_NAME": "FENGYUN 1C DEB", "OBJECT_ID": "1999-025CFR", "EPOCH": "2025-12-02T05:18:51.313536", "MEAN_MOTION": 14.05269134, "ECCENTRICITY": 0.00738375, "INCLINATION": 98.8156, "RA_OF_ASC_NODE": 334.3381, "ARG_OF_PERICENTER": 320.8627, "MEAN_ANOMALY": 38.7214, "EPHEMERIS_TYPE": 0, "CLASSIFICATION_TYPE": "U", "NORAD_CAT_ID": 31766, "ELEMENT_SET_NO": 999, "REV_AT_EPOCH": 63938, "BSTAR": 0.0003300341, "MEAN_MOTION_DOT": 5.04e-06, "MEAN_MOTION_DDOT": 0}, "tle": {"line1": "1 31766U 99025CFR 25336.22142724  .00000504  00000+0  33003-3 0  9991", "line2": "2 31766  98.8156 334.3381 0073837 320.8627  38.7214 14.05269134639382"}}, "geometry": {"type": "Point", "coordinates": [-25.750837620745447, 2.804333079501474]}}, {"type": "Feature", "properties": {"norad_id": 31767, "name": "FENGYUN 1C DEB", "group": "fengyun-1c-debris", "lat": -13.279359043250365, "lon": 8.65281627159203, "alt_km": 892.0415418757784, "timestamp": "2025-12-02T13:52:17.546057+00:00", "meta": {"OBJECT_NAME": "FENGYUN 1C DEB", "OBJECT_ID": "1999-025CFS", "EPOCH": "2025-12-01T14:37:35.233248", "MEAN_MOTION": 14.04944671, "ECCENTRICITY": 0.0041867, "INCLINATION": 98.8235, "RA_OF_ASC_NODE": 5.6102, "ARG_OF_PERICENTER": 100.5814, "MEAN_ANOMALY": 30.5422, "EPHEMERIS_TYPE": 0, "CLASSIFICATION_TYPE": "U", "NORAD_CAT_ID": 31767, "ELEMENT_SET_NO": 999, "REV_AT_EPOCH": 94669, "BSTAR": 0.00034816625, "MEAN_MOTION_DOT": 5.22e-06, "MEAN_MOTION_DDOT": 0}, "tle": {"line1": "1 31767U 99025CFS 25335.60943557  .00000522  00000+0  34817-3 0  9990", "line2": "2 31767  98.8235   5.6102 0041867 100.5814  30.5422 14.04944671946690"}}, "geometry": {"type": "Point", "coordinates": [8.65281627159203, -13.279359043250365]}}, {"type": "Feature", "properties": {"norad_id": 31768, "name": "FENGYUN 1C DEB", "group": "fengyun-1c-debris", "lat": 26.703285179781005, "lon": 43.66131610546964, "alt_km": 624.3149801537884, "timestamp": "2025-12-02T13:52:17.546067+00:00", "meta": {"OBJECT_NAME": "FENGYUN 1C DEB", "OBJECT_ID": "1999-025CFT", "EPOCH": "2025-12-02T04:07:21.949248", "MEAN_MOTION": 14.75548575, "ECCENTRICITY": 0.00263537, "INCLINATION": 99.0444, "RA_OF_ASC_NODE": 47.8032, "ARG_OF_PERICENTER": 15.377, "MEAN_ANOMALY": 15.2605, "EPHEMERIS_TYPE": 0, "CLASSIFICATION_TYPE": "U", "NORAD_CAT_ID": 31768, "ELEMENT_SET_NO": 999, "REV_AT_EPOCH": 96717, "BSTAR": 0.0028905005, "MEAN_MOTION_DOT": 0.00019795, "MEAN_MOTION_DDOT": 0}, "tle": {"line1": "1 31768U 99025CFT 25336.17178182  .00019795  00000+0  28905-2 0  9990", "line2": "2 31768  99.0444  47.8032 0026353  15.3770  15.2605 14.75548575967173"}}, "geometry": {"type": "Point", "coordinates": [43.66131610546964, 26.703285179781005]}}]}